{
  "type": "FeatureCollection",
  "features": [
    {
      "type": "Feature",
      "properties": {
        "norad_id": 34962,
        "name": "COSMOS 2251 DEB",
        "group": "cosmos-2251-debris",
        "lat": -36.421050457270525,
        "lon": 29.78089715847491,
        "alt_km": 743.6476018192561,
        "timestamp": "2025-12-10T11:33:53.779571+00:00",
        "meta_object_name": "COSMOS 2251 DEB",
        "meta_object_id": "1993-036AER",
        "meta_epoch": "2025-12-09T14:38:25.048032",
        "meta_mean_motion": 14.46503522,
        "meta_eccentricity": 0.0018764,
        "meta_inclination": 74.0293,
        "meta_ra_of_asc_node": 199.2104,
        "meta_arg_of_pericenter": 312.5385,
        "meta_mean_anomaly": 47.4189,
        "meta_ephemeris_type": 0,
        "meta_classification_type": "U",
        "meta_norad_cat_id": 34962,
        "meta_element_set_no": 999,
        "meta_rev_at_epoch": 87533,
        "meta_bstar": 0.00067192,
        "meta_mean_motion_dot": 2.398e-05,
        "meta_mean_motion_ddot": 0,
        "tle_line1": "1 34962U 93036AER 25343.61001213  .00002398  00000+0  67192-3 0  9995",
        "tle_line2": "2 34962  74.0293 199.2104 0018764 312.5385  47.4189 14.46503522875331"
      },
      "geometry": {
        "type": "Point",
        "coordinates": [
          29.78089715847491,
          -36.421050457270525
        ]
      }
    },
    {
      "type": "Feature",
      "properties": {
        "norad_id": 34963,
        "name": "COSMOS 2251 DEB",
        "group": "cosmos-2251-debris",
        "lat": 70.99797345990872,
        "lon": 102.42536295406822,
        "alt_km": 744.1355755973345,
        "timestamp": "2025-12-10T11:33:53.779581+00:00",
        "meta_object_name": "COSMOS 2251 DEB",
        "meta_object_id": "1993-036AES",
        "meta_epoch": "2025-12-08T12:52:00.806016",
        "meta_mean_motion": 14.51014391,
        "meta_eccentricity": 0.0042597,
        "meta_inclination": 74.1718,
        "meta_ra_of_asc_node": 50.5866,
        "meta_arg_of_pericenter": 247.8405,
        "meta_mean_anomaly": 111.8233,
        "meta_ephemeris_type": 0,
        "meta_classification_type": "U",
        "meta_norad_cat_id": 34963,
        "meta_element_set_no": 999,
        "meta_rev_at_epoch": 86740,
        "meta_bstar": 0.0019565,
        "meta_mean_motion_dot": 7.813e-05,
        "meta_mean_motion_ddot": 0,
        "tle_line1": "1 34963U 93036AES 25342.53612044  .00007813  00000+0  19565-2 0  9993",
        "tle_line2": "2 34963  74.1718  50.5866 0042597 247.8405 111.8233 14.51014391867405"
      },
      "geometry": {
        "type": "Point",
        "coordinates": [
          102.42536295406822,
          70.99797345990872
        ]
      }
    },
    {
      "type": "Feature",
      "properties": {
        "norad_id": 34964,
        "name": "COSMOS 2251 DEB",
        "group": "cosmos-2251-debris",
        "lat": 32.2054289091025,
        "lon": 161.34223707742245,
        "alt_km": 819.744551836975,
        "timestamp": "2025-12-10T11:33:53.779590+00:00",
        "meta_object_name": "COSMOS 2251 DEB",
        "meta_object_id": "1993-036AET",
        "meta_epoch": "2025-12-06T09:08:23.227296",
        "meta_mean_motion": 14.00561346,
        "meta_eccentricity": 0.02131727,
        "meta_inclination": 73.9719,
        "meta_ra_of_asc_node": 358.9078,
        "meta_arg_of_pericenter": 218.6047,
        "meta_mean_anomaly": 139.9683,
        "meta_ephemeris_type": 0,
        "meta_classification_type": "U",
        "meta_norad_cat_id": 34964,
        "meta_element_set_no": 999,
        "meta_rev_at_epoch": 84389,
        "meta_bstar": 0.0026176283,
        "meta_mean_motion_dot": 4.714e-05,
        "meta_mean_motion_ddot": 0,
        "tle_line1": "1 34964U 93036AET 25340.38082439  .00004714  00000+0  26176-2 0  9997",
        "tle_line2": "2 34964  73.9719 358.9078 0213172 218.6047 139.9683 14.00561346843899"
      },
      "geometry": {
        "type": "Point",
        "coordinates": [
          161.34223707742245,
          32.2054289091025
        ]
      }
    },
    {
      "type": "Feature",
      "properties": {
        "norad_id": 34965,
        "name": "COSMOS 2251 DEB",
        "group": "cosmos-2251-debris",
        "lat": -7.187718938623832,
        "lon": -45.2392261929522,
        "alt_km": 727.8358069645301,
        "timestamp": "2025-12-10T11:33:53.779600+00:00",
        "meta_object_name": "COSMOS 2251 DEB",
        "meta_object_id": "1993-036AEU",
        "meta_epoch": "2025-12-10T04:04:15.052224",
        "meta_mean_motion": 14.48695429,
        "meta_eccentricity": 0.0026526,
        "meta_inclination": 74.0504,
        "meta_ra_of_asc_node": 133.2783,
        "meta_arg_of_pericenter": 260.9335,
        "meta_mean_anomaly": 98.8822,
        "meta_ephemeris_type": 0,
        "meta_classification_type": "U",
        "meta_norad_cat_id": 34965,
        "meta_element_set_no": 999,
        "meta_rev_at_epoch": 87076,
        "meta_bstar": 0.00053021,
        "meta_mean_motion_dot": 1.979e-05,
        "meta_mean_motion_ddot": 0,
        "tle_line1": "1 34965U 93036AEU 25344.16961866  .00001979  00000+0  53021-3 0  9998",
        "tle_line2": "2 34965  74.0504 133.2783 0026526 260.9335  98.8822 14.48695429870762"
      },
      "geometry": {
        "type": "Point",
        "coordinates": [
          -45.2392261929522,
          -7.187718938623832
        ]
      }
    },
    {
      "type": "Feature",
      "properties": {
        "norad_id": 34967,
        "name": "COSMOS 2251 DEB",
        "group": "cosmos-2251-debris",
        "lat": 42.87572697324229,
        "lon": 62.61466764233393,
        "alt_km": 740.4648121861464,
        "timestamp": "2025-12-10T11:33:53.779610+00:00",
        "meta_object_name": "COSMOS 2251 DEB",
        "meta_object_id": "1993-036AEW",
        "meta_epoch": "2025-12-08T12:23:52.050624",
        "meta_mean_motion": 14.44233301,
        "meta_eccentricity": 0.00378,
        "meta_inclination": 73.9938,
        "meta_ra_of_asc_node": 261.7361,
        "meta_arg_of_pericenter": 49.0398,
        "meta_mean_anomaly": 311.4019,
        "meta_ephemeris_type": 0,
        "meta_classification_type": "U",
        "meta_norad_cat_id": 34967,
        "meta_element_set_no": 999,
        "meta_rev_at_epoch": 64896,
        "meta_bstar": 0.0012271,
        "meta_mean_motion_dot": 4.227e-05,
        "meta_mean_motion_ddot": 0,
        "tle_line1": "1 34967U 93036AEW 25342.51657466  .00004227  00000+0  12271-2 0  9995",
        "tle_line2": "2 34967  73.9938 261.7361 0037800  49.0398 311.4019 14.44233301648964"
      },
      "geometry": {
        "type": "Point",
        "coordinates": [
          62.61466764233393,
          42.87572697324229
        ]
      }
    },
    {
      "type": "Feature",
      "properties": {
        "norad_id": 34968,
        "name": "COSMOS 2251 DEB",
        "group": "cosmos-2251-debris",
        "lat": -44.245652529393034,
        "lon": 87.55925544943932,
        "alt_km": 751.927553993648,
        "timestamp": "2025-12-10T11:33:53.779620+00:00",
        "meta_object_name": "COSMOS 2251 DEB",
        "meta_object_id": "1993-036AEX",
        "meta_epoch": "2025-12-10T03:56:53.937888",
        "meta_mean_motion": 14.59398927,
        "meta_eccentricity": 0.0086495,
        "meta_inclination": 74.039,
        "meta_ra_of_asc_node": 251.9778,
        "meta_arg_of_pericenter": 12.9735,
        "meta_mean_anomaly": 347.3626,
        "meta_ephemeris_type": 0,
        "meta_classification_type": "U",
        "meta_norad_cat_id": 34968,
        "meta_element_set_no": 999,
        "meta_rev_at_epoch": 88440,
        "meta_bstar": 0.00027686,
        "meta_mean_motion_dot": 1.35e-05,
        "meta_mean_motion_ddot": 0,
        "tle_line1": "1 34968U 93036AEX 25344.16451317  .00001350  00000+0  27686-3 0  9997",
        "tle_line2": "2 34968  74.0390 251.9778 0086495  12.9735 347.3626 14.59398927884405"
      },
      "geometry": {
        "type": "Point",
        "coordinates": [
          87.55925544943932,
          -44.245652529393034
        ]
      }
    },
    {
      "type": "Feature",
      "properties": {
        "norad_id": 34969,
        "name": "COSMOS 2251 DEB",
        "group": "cosmos-2251-debris",
        "lat": 1.4844496286489477,
        "lon": -153.15566186872456,
        "alt_km": 736.0965152319013,
        "timestamp": "2025-12-10T11:33:53.779655+00:00",
        "meta_object_name": "COSMOS 2251 DEB",
        "meta_object_id": "1993-036AEY",
        "meta_epoch": "2025-12-09T11:16:06.111552",
        "meta_mean_motion": 14.32248944,
        "meta_eccentricity": 0.00738203,
        "meta_inclination": 74.0146,
        "meta_ra_of_asc_node": 29.119,
        "meta_arg_of_pericenter": 163.1468,
        "meta_mean_anomaly": 197.2162,
        "meta_ephemeris_type": 0,
        "meta_classification_type": "U",
        "meta_norad_cat_id": 34969,
        "meta_element_set_no": 999,
        "meta_rev_at_epoch": 65090,
        "meta_bstar": 0.00049233942,
        "meta_mean_motion_dot": 1.343e-05,
        "meta_mean_motion_ddot": 0,
        "tle_line1": "1 34969U 93036AEY 25343.46951518  .00001343  00000+0  49234-3 0  9993",
        "tle_line2": "2 34969  74.0146  29.1190 0073820 163.1468 197.2162 14.32248944650905"
      },
      "geometry": {
        "type": "Point",
        "coordinates": [
          -153.15566186872456,
          1.4844496286489477
        ]
      }
    }
  ]
}